DUBAISAT-1              
1 35682U 09041B   26186.33567347  .00001224  00000+0  18869-3 0  9992
2 35682  98.0074 319.3968 0010698  20.1727 339.9903 14.75156554907775
OCEANSAT-2              
1 35931U 09051A   26186.57144956 -.00000207  00000+0 -11572-3 0  9999
2 35931  98.2318 171.5877 0016687 181.4669 178.6452 13.99658169881909
WORLDVIEW-2 (WV-2)      
1 35946U 09055A   26186.39531579  .00000187  00000+0  76319-4 0  9996
2 35946  98.4760 259.5965 0004847 154.2669 205.8760 14.37905256878261
SMOS                    
1 36036U 09059A   26186.46681371  .00000348  00000+0  12501-3 0  9996
2 36036  98.4427  13.5340 0001300  87.0614 273.0723 14.39783270876087
YAOGAN-7                
1 36110U 09069A   26186.23212031  .00000714  00000+0  10575-3 0  9994
2 36110  98.0048  71.9860 0024218 344.4635  15.5829 14.78029623892291
TANDEM-X                
1 36605U 10030A   26186.50311000  .00000494  00000+0  26699-4 0  9999
2 36605  97.4456 193.9495 0001792  97.5745 262.5693 15.19152794889421
CARTOSAT-2B             
1 36795U 10035A   26186.61068383  .00000710  00000+0  10406-3 0  9998
2 36795  97.9937 237.0425 0012241 126.8528 233.3808 14.78608671862574
YAOGAN-10               
1 36834U 10038A   26186.62386457  .00003582  00000+0  42203-3 0  9991
2 36834  97.8965 209.8813 0001570  84.8718  67.0672 14.85410212859941
COSMO-SKYMED 4          
1 37216U 10060A   26186.67158374  .00001001  00000+0  13228-3 0  9990
2 37216  97.8891  10.0031 0001484  86.4517 273.6866 14.82162322847307
RESOURCESAT-2           
1 37387U 11015A   26186.38855274  .00000138  00000+0  83183-4 0  9999
2 37387  98.7636 253.7040 0011005 199.1708 160.9057 14.21604661788767
HAIYANG-2A              
1 37781U 11043A   26186.60573439  .00000109  00000+0  16287-3 0  9991
2 37781  99.3397 188.8657 0004156  55.8659 304.2884 13.73781198749181
RASAT                   
1 37791U 11044D   26186.58843958  .00001244  00000+0  22394-3 0  9993
2 37791  98.0579 277.7051 0021540 131.3950 341.6801 14.68187707795889
SRMSAT                  
1 37841U 11058D   26186.61154329  .00000404  00000+0  75655-4 0  9991
2 37841  19.9728 307.9551 0011862  46.8223  73.4725 14.11579637760425
PLEIADES 1A             
1 38012U 11076F   26186.66701081  .00000604  00000+0  13984-3 0  9998
2 38012  98.1969 261.5216 0001771  84.8047  75.4487 14.58543896774688
ZIYUAN 1-02C (ZY 1-02C) 
1 38038U 11079A   26186.66827216  .00000863  00000+0  29800-3 0  9999
2 38038  98.4060 253.5904 0005163 248.8804 262.8939 14.38231642761869
ARIRANG-3 (KOMPSAT-3)   
1 38338U 12025B   26186.57729862  .00000477  00000+0  10398-3 0  9995
2 38338  98.1179 143.7208 0006675  63.5647 296.6238 14.62223079754033
EXACTVIEW-1 (ADS-1B)    
1 38709U 12039C   26186.28620923  .00000166  00000+0  90688-4 0  9994
2 38709  98.9797 304.0869 0011864 117.4533 242.7854 14.24990300725280
SPOT 6                  
1 38755U 12047A   26186.65182019  .00000914  00000+0  20663-3 0  9990
2 38755  98.2107 253.7444 0001201  76.8411 283.2922 14.58536417735745
PLEIADES 1B             
1 39019U 12068A   26186.60185028  .00000840  00000+0  19036-3 0  9995
2 39019  98.1939 261.4002 0001678  81.7729 278.3660 14.58574154723530
GOKTURK 2               
1 39030U 12073A   26186.59363712  .00000921  00000+0  14214-3 0  9993
2 39030  97.6811  23.1014 0000956  70.2083 289.9230 14.75563366727229
LANDSAT 8               
1 39084U 13008A   26186.35963828  .00000465  00000+0  11340-3 0  9999
2 39084  98.2294 256.2785 0001354  93.9663 266.1690 14.57107787700547
SARAL                   
1 39086U 13009A   26186.47611835 -.00000047  00000+0 -12981-5 0  9995
2 39086  98.5554  12.8120 0001085 195.8191 164.2959 14.32893598698221
GAOFEN-1                
1 39150U 13018A   26186.63129307  .00001427  00000+0  21163-3 0  9994
2 39150  97.9085 258.3244 0016215 202.5183 157.5317 14.76513332710969
VNREDSAT 1              
1 39160U 13021B   26186.60011655  .00001205  00000+0  23397-3 0  9997
2 39160  97.9064 239.3094 0001696  81.6263 278.5133 14.64878938702987
ARIRANG-5 (KOMPSAT-5)   
1 39227U 13042A   26186.58888475  .00002189  00000+0  16043-3 0  9995
2 39227  97.6211  13.0295 0005335  78.4190 281.7635 15.04555728706621
SKYSAT-A                
1 39418U 13066C   26186.11375972  .00004253  00000+0  24293-3 0  9995
2 39418  97.3796 234.9399 0019750 250.3908 109.5192 15.13077671691197
DUBAISAT-2              
1 39419U 13066D   26186.62250962  .00003998  00000+0  24744-3 0  9999
2 39419  97.4579 176.2849 0010204 340.4425  19.6412 15.10327575689175
GPM-CORE                
1 39574U 14009C   26186.33664645  .00014766  00000+0  31581-3 0  9996
2 39574  64.9704 247.3265 0011192 258.7739 101.2144 15.44964522700613
SENTINEL-1A             
1 39634U 14016A   26186.60748097 -.00000116  00000+0 -15000-4 0  9990
2 39634  98.1779 193.8713 0001368  85.1479 274.9877 14.59199489652705
KAZEOSAT 1              
1 39731U 14024A   26186.61678925  .00000440  00000+0  14698-3 0  9999
2 39731  98.3196 258.6060 0001317  80.7374 279.3965 14.42035594641211
